NORAD_CAT_ID,OBJECT_NAME,OBJECT_TYPE,EPOCH,MEAN_MOTION,ECCENTRICITY,INCLINATION,RA_OF_ASC_NODE,ARG_OF_PERICENTER,MEAN_ANOMALY,BSTAR,MEAN_MOTION_DOT,MEAN_MOTION_DDOT,TLE_LINE0,TLE_LINE1,TLE_LINE2,SEMIMAJOR_AXIS,PERIOD,APOGEE,PERIGEE,DECAYED
52617.0,STARLINK-3996,PAYLOAD,2023-03-04 00:57:50,15.08862567,0.0001825,53.2165,174.6157,94.7341,265.386,0.00061162,9.465e-05,0.0,0 STARLINK-3996,1 52617U 22052V   23063.04016362  .00009465  00000-0  61162-3 0  9991,2 52617  53.2165 174.6157 0001825  94.7341 265.3860 15.08862567 45052,6917.811,95.436,540.939,538.414,0.0
52617.0,STARLINK-3996,PAYLOAD,2023-03-04 10:30:09,15.08842368,0.000113,53.2167,172.8302,112.1097,248.0015,0.0014499,0.00022864,0.0,0 STARLINK-3996,1 52617U 22052V   23063.43760722  .00022864  00000-0  14499-2 0  9998,2 52617  53.2167 172.8302 0001130 112.1097 248.0015 15.08842368 44739,6917.873,95.437,540.52,538.956,0.0
52617.0,STARLINK-3996,PAYLOAD,2023-03-04 18:27:05,15.08859645,0.0001247,53.217,171.3428,104.5221,255.591,0.0030933,0.00049313,0.0,0 STARLINK-3996,1 52617U 22052V   23063.76880898  .00049313  00000-0  30933-2 0  9990,2 52617  53.2170 171.3428 0001247 104.5221 255.5910 15.08859645 45160,6917.82,95.436,540.548,538.823,0.0
52617.0,STARLINK-3996,PAYLOAD,2023-03-05 21:28:39,15.08856428,0.0001233,53.2189,166.2921,68.225,291.8873,0.0018766,0.00029718,0.0,0 STARLINK-3996,1 52617U 22052V   23064.89490071  .00029718  00000-0  18766-2 0  9992,2 52617  53.2189 166.2921 0001233  68.2250 291.8873 15.08856428 44957,6917.83,95.437,540.548,538.842,0.0
52617.0,STARLINK-3996,PAYLOAD,2023-03-06 11:47:07,15.08866726,0.0001435,53.2191,163.6179,51.8094,308.3027,0.0012639,0.00019899,0.0,0 STARLINK-3996,1 52617U 22052V   23065.49105678  .00019899  00000-0  12639-2 0  9997,2 52617  53.2191 163.6179 0001435  51.8094 308.3027 15.08866726 45424,6917.799,95.436,540.656,538.671,0.0
52617.0,STARLINK-3996,PAYLOAD,2023-03-06 16:33:15,15.08880576,9.52e-05,53.2177,162.7208,99.508,260.6019,0.0026152,0.00041625,0.0,0 STARLINK-3996,1 52617U 22052V   23065.68976503  .00041625  00000-0  26152-2 0  9998,2 52617  53.2177 162.7208 0000952  99.5080 260.6019 15.08880576 45451,6917.756,95.435,540.28,538.963,0.0
52617.0,STARLINK-3996,PAYLOAD,2023-03-06 22:54:49,15.0883434,0.0001422,53.2186,161.5314,110.3831,249.7314,0.00049729,7.634e-05,0.0,0 STARLINK-3996,1 52617U 22052V   23065.95473637  .00007634  00000-0  49729-3 0  9996,2 52617  53.2186 161.5314 0001422 110.3831 249.7314 15.08834340 45493,6917.898,95.438,540.746,538.779,0.0
52617.0,STARLINK-3996,PAYLOAD,2023-03-07 10:02:31,15.08838449,0.0001331,53.2192,159.4549,107.9885,252.1253,-0.00010425,-1.947e-05,0.0,0 STARLINK-3996,1 52617U 22052V   23066.41841551 -.00001947  00000-0 -10425-3 0  9996,2 52617  53.2192 159.4549 0001331 107.9885 252.1253 15.08838449 45186,6917.885,95.438,540.671,538.829,0.0
52617.0,STARLINK-3996,PAYLOAD,2023-03-08 09:53:18,15.08838363,7.66e-05,53.2182,154.9913,98.4113,261.6966,0.000633,9.8e-05,0.0,0 STARLINK-3996,1 52617U 22052V   23067.41202008  .00009800  00000-0  63300-3 0  9999,2 52617  53.2182 154.9913 0000766  98.4113 261.6966 15.08838363 45719,6917.885,95.438,540.28,539.22,0.0
52617.0,STARLINK-3996,PAYLOAD,2023-03-08 16:14:50,15.08866013,0.0001892,53.2176,153.8009,82.9915,277.1292,0.0016325,0.00025807,0.0,0 STARLINK-3996,1 52617U 22052V   23067.67697914  .00025807  00000-0  16325-2 0  9990,2 52617  53.2176 153.8009 0001892  82.9915 277.1292 15.08866013 45756,6917.801,95.436,540.975,538.357,0.0
52617.0,STARLINK-3996,PAYLOAD,2023-03-08 22:36:23,15.08857545,7.27e-05,53.2171,152.6125,177.5443,182.5553,0.0012322,0.00019386,0.0,0 STARLINK-3996,1 52617U 22052V   23067.94193589  .00019386  00000-0  12322-2 0  9997,2 52617  53.2171 152.6125 0000727 177.5443 182.5553 15.08857545 45793,6917.827,95.436,540.195,539.189,0.0
52617.0,STARLINK-3996,PAYLOAD,2023-03-09 14:30:14,15.08881774,0.0001621,53.2166,149.6373,93.43,266.6878,0.0025441,0.00040481,0.0,0 STARLINK-3996,1 52617U 22052V   23068.60433392  .00040481  00000-0  25441-2 0  9996,2 52617  53.2166 149.6373 0001621  93.4300 266.6878 15.08881774 45515,6917.753,95.435,540.739,538.496,0.0
52617.0,STARLINK-3996,PAYLOAD,2023-03-09 22:27:10,15.08847056,0.000222,53.2196,148.1465,85.293,274.8315,-8.6546e-05,-1.666e-05,0.0,0 STARLINK-3996,1 52617U 22052V   23068.93553715 -.00001666  00000-0 -86546-4 0  9993,2 52617  53.2196 148.1465 0002220  85.2930 274.8315 15.08847056 45947,6917.859,95.437,541.26,538.188,0.0
52617.0,STARLINK-3996,PAYLOAD,2023-03-10 11:10:15,15.08841406,0.0001759,53.2179,145.7676,104.6139,255.5048,0.00012464,1.696e-05,0.0,0 STARLINK-3996,1 52617U 22052V   23069.46545964  .00001696  00000-0  12464-3 0  9997,2 52617  53.2179 145.7676 0001759 104.6139 255.5048 15.08841406 45647,6917.876,95.437,540.958,538.524,0.0
52617.0,STARLINK-3996,PAYLOAD,2023-03-10 22:17:58,15.08831057,9.65e-05,53.2166,143.6905,79.1691,280.941,0.00057084,8.807e-05,0.0,0 STARLINK-3996,1 52617U 22052V   23069.92914629  .00008807  00000-0  57084-3 0  9994,2 52617  53.2166 143.6905 0000965  79.1691 280.9410 15.08831057 46098,6917.908,95.438,540.44,539.105,0.0
52617.0,STARLINK-3996,PAYLOAD,2023-03-11 09:25:41,15.08829659,0.0002047,53.2186,141.6085,82.6921,277.4304,0.00057609,8.89e-05,0.0,0 STARLINK-3996,1 52617U 22052V   23070.39283598  .00008890  00000-0  57609-3 0  9996,2 52617  53.2186 141.6085 0002047  82.6921 277.4304 15.08829659 45788,6917.912,95.438,541.193,538.361,0.0
52617.0,STARLINK-3996,PAYLOAD,2023-03-11 15:47:13,15.08849294,0.000192,53.2172,140.4163,91.1949,268.9263,0.0011265,0.0001769,0.0,0 STARLINK-3996,1 52617U 22052V   23070.65779228  .00017690  00000-0  11265-2 0  9990,2 52617  53.2172 140.4163 0001920  91.1949 268.9263 15.08849294 45822,6917.852,95.437,541.045,538.389,0.0
52617.0,STARLINK-3996,PAYLOAD,2023-03-12 04:30:18,15.08837069,0.0001187,53.217,138.0418,88.6832,271.4296,0.00055081,8.488e-05,0.0,0 STARLINK-3996,1 52617U 22052V   23071.18771653  .00008488  00000-0  55081-3 0  9993,2 52617  53.2170 138.0418 0001187  88.6832 271.4296 15.08837069 46286,6917.889,95.438,540.576,538.933,0.0
52617.0,STARLINK-3996,PAYLOAD,2023-03-12 10:51:51,15.08858194,0.0001444,53.2161,136.8512,91.1159,268.9998,0.0020887,0.00033127,0.0,0 STARLINK-3996,1 52617U 22052V   23071.45267433  .00033127  00000-0  20887-2 0  9992,2 52617  53.2161 136.8512 0001444  91.1159 268.9998 15.08858194 46321,6917.825,95.436,540.689,538.691,0.0
52617.0,STARLINK-3996,PAYLOAD,2023-03-13 04:21:05,15.08846126,4.31e-05,53.2168,133.578,24.2652,335.836,0.0010446,0.00016379,0.0,0 STARLINK-3996,1 52617U 22052V   23072.18131304  .00016379  00000-0  10446-2 0  9990,2 52617  53.2168 133.5780 0000431  24.2652 335.8360 15.08846126 46430,6917.862,95.437,540.025,539.429,0.0
52617.0,STARLINK-3996,PAYLOAD,2023-03-14 02:36:29,15.08839626,0.0001493,53.2164,129.4172,94.2048,265.9115,0.0012147,0.00019097,0.0,0 STARLINK-3996,1 52617U 22052V   23073.10867141  .00019097  00000-0  12147-2 0  9998,2 52617  53.2164 129.4172 0001493  94.2048 265.9115 15.08839626 46573,6917.882,95.438,540.779,538.714,0.0
52617.0,STARLINK-3996,PAYLOAD,2023-03-14 10:33:24,15.08852502,0.0001376,53.2173,127.9329,82.4967,277.6182,0.0014504,0.00022878,0.0,0 STARLINK-3996,1 52617U 22052V   23073.43986935  .00022878  00000-0  14504-2 0  9997,2 52617  53.2173 127.9329 0001376  82.4967 277.6182 15.08852502 46245,6917.842,95.437,540.659,538.755,0.0
52617.0,STARLINK-3996,PAYLOAD,2023-03-14 20:05:42,15.08885169,0.0001316,53.2168,126.1475,98.8209,261.2932,0.0019704,0.00031249,0.0,0 STARLINK-3996,1 52617U 22052V   23073.83729933  .00031249  00000-0  19704-2 0  9993,2 52617  53.2168 126.1475 0001316  98.8209 261.2932 15.08885169 46300,6917.742,95.435,540.518,538.697,0.0
52617.0,STARLINK-3996,PAYLOAD,2023-03-15 11:59:33,15.08878007,0.000141,53.2175,123.172,113.2703,246.8438,0.0012026,0.00018923,0.0,0 STARLINK-3996,1 52617U 22052V   23074.49969495  .00018923  00000-0  12026-2 0  9999,2 52617  53.2175 123.1720 0001410 113.2703 246.8438 15.08878007 46789,6917.764,95.435,540.605,538.654,0.0
52617.0,STARLINK-3996,PAYLOAD,2023-03-15 19:56:29,15.08860068,0.0001817,53.2163,121.687,102.3565,257.763,0.00053425,8.229e-05,0.0,0 STARLINK-3996,1 52617U 22052V   23074.83089485  .00008229  00000-0  53425-3 0  9996,2 52617  53.2163 121.6870 0001817 102.3565 257.7630 15.08860068 46830,6917.819,95.436,540.941,538.427,0.0
52617.0,STARLINK-3996,PAYLOAD,2023-03-16 10:14:57,15.08836625,0.0001431,53.2172,119.0107,106.3687,253.7463,-0.00016975,-2.988e-05,0.0,0 STARLINK-3996,1 52617U 22052V   23075.42705958 -.00002988  00000-0 -16975-3 0  9999,2 52617  53.2172 119.0107 0001431 106.3687 253.7463 15.08836625 46927,6917.891,95.438,540.746,538.766,0.0
52617.0,STARLINK-3996,PAYLOAD,2023-03-16 19:47:17,15.08817147,0.0001695,53.217,117.2247,88.1555,271.9631,-0.0004427,-7.322e-05,0.0,0 STARLINK-3996,1 52617U 22052V   23075.82450870 -.00007322  00000-0 -44270-3 0  9999,2 52617  53.2170 117.2247 0001695  88.1555 271.9631 15.08817147 46986,6917.95,95.439,540.988,538.643,0.0
52617.0,STARLINK-3996,PAYLOAD,2023-03-17 11:41:09,15.08817688,0.0001339,53.2166,114.2522,86.4492,273.6653,-8.5733e-05,-1.651e-05,0.0,0 STARLINK-3996,1 52617U 22052V   23076.48691943 -.00001651  00000-0 -85733-4 0  9999,2 52617  53.2166 114.2522 0001339  86.4492 273.6653 15.08817688 46703,6917.949,95.439,540.74,538.887,0.0
52617.0,STARLINK-3996,PAYLOAD,2023-03-17 19:38:05,15.08828414,0.000128,53.2161,112.7665,86.6328,273.481,0.00035599,5.38e-05,0.0,0 STARLINK-3996,1 52617U 22052V   23076.81812151  .00005380  00000-0  35599-3 0  9997,2 52617  53.2161 112.7665 0001280  86.6328 273.4810 15.08828414 47134,6917.916,95.438,540.666,538.895,0.0
52617.0,STARLINK-3996,PAYLOAD,2023-03-18 08:21:10,15.08850318,0.0001194,53.2152,110.3869,80.5565,279.5562,0.0010956,0.00017196,0.0,0 STARLINK-3996,1 52617U 22052V   23077.34804183  .00017196  00000-0  10956-2 0  9999,2 52617  53.2152 110.3869 0001194  80.5565 279.5562 15.08850318 47212,6917.849,95.437,540.54,538.888,0.0
